[{"OBJECT_NAME":"STARLINK-35268","OBJECT_ID":"2025-218V","EPOCH":"2025-11-26T03:43:35.088672","MEAN_MOTION":15.05652317,"ECCENTRICITY":0.0002324,"INCLINATION":97.6022,"RA_OF_ASC_NODE":190.9426,"ARG_OF_PERICENTER":84.5481,"MEAN_ANOMALY":275.6011,"EPHEMERIS_TYPE":0,"CLASSIFICATION_TYPE":"U","NORAD_CAT_ID":65810,"ELEMENT_SET_NO":999,"REV_AT_EPOCH":939,"BSTAR":0.00034079,"MEAN_MOTION_DOT":4.86e-5,"MEAN_MOTION_DDOT":0},{"OBJECT_NAME":"STARLINK-35224","OBJECT_ID":"2025-218W","EPOCH":"2025-11-26T03:47:34.268928","MEAN_MOTION":15.05654091,"ECCENTRICITY":0.0002,"INCLINATION":97.6038,"RA_OF_ASC_NODE":190.9386,"ARG_OF_PERICENTER":89.1908,"MEAN_ANOMALY":270.9548,"EPHEMERIS_TYPE":0,"CLASSIFICATION_TYPE":"U","NORAD_CAT_ID":65811,"ELEMENT_SET_NO":999,"REV_AT_EPOCH":939,"BSTAR":0.00040452,"MEAN_MOTION_DOT":5.782e-5,"MEAN_MOTION_DDOT":0},{"OBJECT_NAME":"STARLINK-35271","OBJECT_ID":"2025-218X","EPOCH":"2025-11-26T03:31:37.483104","MEAN_MOTION":15.05651835,"ECCENTRICITY":0.0002732,"INCLINATION":97.6036,"RA_OF_ASC_NODE":190.9543,"ARG_OF_PERICENTER":90.5145,"MEAN_ANOMALY":269.6395,"EPHEMERIS_TYPE":0,"CLASSIFICATION_TYPE":"U","NORAD_CAT_ID":65812,"ELEMENT_SET_NO":999,"REV_AT_EPOCH":939,"BSTAR":0.00016722,"MEAN_MOTION_DOT":2.353e-5,"MEAN_MOTION_DDOT":0},{"OBJECT_NAME":"STARLINK-35215","OBJECT_ID":"2025-218Y","EPOCH":"2025-11-26T03:23:38.967072","MEAN_MOTION":15.05656278,"ECCENTRICITY":0.0002322,"INCLINATION":97.6019,"RA_OF_ASC_NODE":190.9619,"ARG_OF_PERICENTER":88.35,"MEAN_ANOMALY":271.7993,"EPHEMERIS_TYPE":0,"CLASSIFICATION_TYPE":"U","NORAD_CAT_ID":65813,"ELEMENT_SET_NO":999,"REV_AT_EPOCH":939,"BSTAR":0.00035205,"MEAN_MOTION_DOT":5.024e-5,"MEAN_MOTION_DDOT":0},{"OBJECT_NAME":"STARLINK-35157","OBJECT_ID":"2025-218Z","EPOCH":"2025-11-26T03:19:40.063296","MEAN_MOTION":15.05654397,"ECCENTRICITY":0.0003141,"INCLINATION":97.603,"RA_OF_ASC_NODE":190.9661,"ARG_OF_PERICENTER":79.3989,"MEAN_ANOMALY":280.7592,"EPHEMERIS_TYPE":0,"CLASSIFICATION_TYPE":"U","NORAD_CAT_ID":65814,"ELEMENT_SET_NO":999,"REV_AT_EPOCH":939,"BSTAR":-2.2299e-5,"MEAN_MOTION_DOT":-3.83e-6,"MEAN_MOTION_DDOT":0},{"OBJECT_NAME":"STARLINK-35392","OBJECT_ID":"2025-221A","EPOCH":"2025-11-26T00:04:23.736864","MEAN_MOTION":15.30196015,"ECCENTRICITY":0.0001245,"INCLINATION":53.1603,"RA_OF_ASC_NODE":210.3078,"ARG_OF_PERICENTER":88.2968,"MEAN_ANOMALY":271.8175,"EPHEMERIS_TYPE":0,"CLASSIFICATION_TYPE":"U","NORAD_CAT_ID":65823,"ELEMENT_SET_NO":999,"REV_AT_EPOCH":1020,"BSTAR":0.00028252952,"MEAN_MOTION_DOT":8.017e-5,"MEAN_MOTION_DDOT":0},{"OBJECT_NAME":"STARLINK-35281","OBJECT_ID":"2025-221B","EPOCH":"2025-11-26T01:43:00.197184","MEAN_MOTION":15.30206119,"ECCENTRICITY":3.81e-5,"INCLINATION":53.1608,"RA_OF_ASC_NODE":210.0234,"ARG_OF_PERICENTER":150.4827,"MEAN_ANOMALY":209.6195,"EPHEMERIS_TYPE":0,"CLASSIFICATION_TYPE":"U","NORAD_CAT_ID":65824,"ELEMENT_SET_NO":999,"REV_AT_EPOCH":1021,"BSTAR":0.00089515,"MEAN_MOTION_DOT":0.00026252,"MEAN_MOTION_DDOT":0},{"OBJECT_NAME":"STARLINK-35397","OBJECT_ID":"2025-221C","EPOCH":"2025-11-26T00:58:56.371008","MEAN_MOTION":15.30198327,"ECCENTRICITY":0.0001175,"INCLINATION":53.1574,"RA_OF_ASC_NODE":209.8296,"ARG_OF_PERICENTER":89.3834,"MEAN_ANOMALY":270.7302,"EPHEMERIS_TYPE":0,"CLASSIFICATION_TYPE":"U","NORAD_CAT_ID":65825,"ELEMENT_SET_NO":999,"REV_AT_EPOCH":1021,"BSTAR":0.00047212,"MEAN_MOTION_DOT":0.00013649,"MEAN_MOTION_DDOT":0},{"OBJECT_NAME":"STARLINK-35381","OBJECT_ID":"2025-221D","EPOCH":"2025-11-26T02:13:14.292192","MEAN_MOTION":15.30199456,"ECCENTRICITY":0.0001154,"INCLINATION":53.1569,"RA_OF_ASC_NODE":209.4385,"ARG_OF_PERICENTER":80.0745,"MEAN_ANOMALY":280.0386,"EPHEMERIS_TYPE":0,"CLASSIFICATION_TYPE":"U","NORAD_CAT_ID":65826,"ELEMENT_SET_NO":999,"REV_AT_EPOCH":1022,"BSTAR":0.00057342,"MEAN_MOTION_DOT":0.00016662,"MEAN_MOTION_DDOT":0},{"OBJECT_NAME":"STARLINK-35393","OBJECT_ID":"2025-221E","EPOCH":"2025-11-26T01:20:12.777216","MEAN_MOTION":15.30201591,"ECCENTRICITY":8.22e-5,"INCLINATION":53.1605,"RA_OF_ASC_NODE":209.922,"ARG_OF_PERICENTER":104.7586,"MEAN_ANOMALY":255.3505,"EPHEMERIS_TYPE":0,"CLASSIFICATION_TYPE":"U","NORAD_CAT_ID":65827,"ELEMENT_SET_NO":999,"REV_AT_EPOCH":1021,"BSTAR":0.0006841,"MEAN_MOTION_DOT":0.00019957,"MEAN_MOTION_DDOT":0},{"OBJECT_NAME":"STARLINK-35396","OBJECT_ID":"2025-221F","EPOCH":"2025-11-26T00:54:23.010048","MEAN_MOTION":15.30206569,"ECCENTRICITY":0.000116,"INCLINATION":53.1569,"RA_OF_ASC_NODE":209.8084,"ARG_OF_PERICENTER":99.0626,"MEAN_ANOMALY":261.0506,"EPHEMERIS_TYPE":0,"CLASSIFICATION_TYPE":"U","NORAD_CAT_ID":65828,"ELEMENT_SET_NO":999,"REV_AT_EPOCH":1021,"BSTAR":0.00091412,"MEAN_MOTION_DOT":0.00026818,"MEAN_MOTION_DDOT":0},{"OBJECT_NAME":"STARLINK-35244","OBJECT_ID":"2025-221G","EPOCH":"2025-11-26T01:37:41.953152","MEAN_MOTION":15.30208815,"ECCENTRICITY":9.62e-5,"INCLINATION":53.1608,"RA_OF_ASC_NODE":212.1699,"ARG_OF_PERICENTER":93.8155,"MEAN_ANOMALY":266.2955,"EPHEMERIS_TYPE":0,"CLASSIFICATION_TYPE":"U","NORAD_CAT_ID":65829,"ELEMENT_SET_NO":999,"REV_AT_EPOCH":1014,"BSTAR":0.00086817,"MEAN_MOTION_DOT":0.00025449,"MEAN_MOTION_DDOT":0},{"OBJECT_NAME":"STARLINK-35368","OBJECT_ID":"2025-221H","EPOCH":"2025-11-26T01:50:36.505824","MEAN_MOTION":15.30192511,"ECCENTRICITY":0.0001122,"INCLINATION":53.1587,"RA_OF_ASC_NODE":210.0533,"ARG_OF_PERICENTER":79.3763,"MEAN_ANOMALY":280.7364,"EPHEMERIS_TYPE":0,"CLASSIFICATION_TYPE":"U","NORAD_CAT_ID":65830,"ELEMENT_SET_NO":999,"REV_AT_EPOCH":1017,"BSTAR":0.0010472,"MEAN_MOTION_DOT":0.00030777,"MEAN_MOTION_DDOT":0},{"OBJECT_NAME":"STARLINK-35337","OBJECT_ID":"2025-221J","EPOCH":"2025-11-26T00:45:15.755040","MEAN_MOTION":15.30198621,"ECCENTRICITY":0.0001213,"INCLINATION":53.1567,"RA_OF_ASC_NODE":209.7683,"ARG_OF_PERICENTER":87.8575,"MEAN_ANOMALY":272.2564,"EPHEMERIS_TYPE":0,"CLASSIFICATION_TYPE":"U","NORAD_CAT_ID":65831,"ELEMENT_SET_NO":999,"REV_AT_EPOCH":1021,"BSTAR":0.00065944,"MEAN_MOTION_DOT":0.00019221,"MEAN_MOTION_DDOT":0},{"OBJECT_NAME":"STARLINK-35277","OBJECT_ID":"2025-221K","EPOCH":"2025-11-26T00:49:49.272384","MEAN_MOTION":15.30207073,"ECCENTRICITY":0.0001277,"INCLINATION":53.1568,"RA_OF_ASC_NODE":209.7874,"ARG_OF_PERICENTER":87.2588,"MEAN_ANOMALY":272.8558,"EPHEMERIS_TYPE":0,"CLASSIFICATION_TYPE":"U","NORAD_CAT_ID":65832,"ELEMENT_SET_NO":999,"REV_AT_EPOCH":1021,"BSTAR":0.00099644,"MEAN_MOTION_DOT":0.00029275,"MEAN_MOTION_DDOT":0},{"OBJECT_NAME":"STARLINK-35345","OBJECT_ID":"2025-221L","EPOCH":"2025-11-26T02:08:40.693632","MEAN_MOTION":15.30197836,"ECCENTRICITY":0.00012,"INCLINATION":53.1577,"RA_OF_ASC_NODE":209.4175,"ARG_OF_PERICENTER":73.3295,"MEAN_ANOMALY":286.7837,"EPHEMERIS_TYPE":0,"CLASSIFICATION_TYPE":"U","NORAD_CAT_ID":65833,"ELEMENT_SET_NO":999,"REV_AT_EPOCH":1022,"BSTAR":0.00095696,"MEAN_MOTION_DOT":0.00028088,"MEAN_MOTION_DDOT":0}]
