STARLINK-35268          
1 65810U 25218V   25330.15526723  .00004860  00000+0  34079-3 0  9995
2 65810  97.6022 190.9426 0002324  84.5481 275.6011 15.05652317  9398
STARLINK-35224          
1 65811U 25218W   25330.15803552  .00005782  00000+0  40452-3 0  9990
2 65811  97.6038 190.9386 0002000  89.1908 270.9548 15.05654091  9391
STARLINK-35271          
1 65812U 25218X   25330.14696161  .00002353  00000+0  16722-3 0  9990
2 65812  97.6036 190.9543 0002732  90.5145 269.6395 15.05651835  9394
STARLINK-35215          
1 65813U 25218Y   25330.14142323  .00005024  00000+0  35205-3 0  9992
2 65813  97.6019 190.9619 0002322  88.3500 271.7993 15.05656278  9399
STARLINK-35157          
1 65814U 25218Z   25330.13865814 -.00000383  00000+0 -22299-4 0  9994
2 65814  97.6030 190.9661 0003141  79.3989 280.7592 15.05654397  9396
STARLINK-35392          
1 65823U 25221A   25330.00305251  .00008017  00000+0  28253-3 0  9993
2 65823  53.1603 210.3078 0001245  88.2968 271.8175 15.30196015 10203
STARLINK-35281          
1 65824U 25221B   25330.07153006  .00026252  00000+0  89515-3 0  9999
2 65824  53.1608 210.0234 0000381 150.4827 209.6195 15.30206119 10215
STARLINK-35397          
1 65825U 25221C   25330.04093022  .00013649  00000+0  47212-3 0  9992
2 65825  53.1574 209.8296 0001175  89.3834 270.7302 15.30198327 10212
STARLINK-35381          
1 65826U 25221D   25330.09252653  .00016662  00000+0  57342-3 0  9998
2 65826  53.1569 209.4385 0001154  80.0745 280.0386 15.30199456 10229
STARLINK-35393          
1 65827U 25221E   25330.05570344  .00019957  00000+0  68410-3 0  9993
2 65827  53.1605 209.9220 0000822 104.7586 255.3505 15.30201591 10213
STARLINK-35396          
1 65828U 25221F   25330.03776632  .00026818  00000+0  91412-3 0  9992
2 65828  53.1569 209.8084 0001160  99.0626 261.0506 15.30206569 10212
STARLINK-35244          
1 65829U 25221G   25330.06784668  .00025449  00000+0  86817-3 0  9996
2 65829  53.1608 212.1699 0000962  93.8155 266.2955 15.30208815 10147
STARLINK-35368          
1 65830U 25221H   25330.07681141  .00030777  00000+0  10472-2 0  9994
2 65830  53.1587 210.0533 0001122  79.3763 280.7364 15.30192511 10175
STARLINK-35337          
1 65831U 25221J   25330.03143235  .00019221  00000+0  65944-3 0  9994
2 65831  53.1567 209.7683 0001213  87.8575 272.2564 15.30198621 10212
STARLINK-35277          
1 65832U 25221K   25330.03459806  .00029275  00000+0  99644-3 0  9993
2 65832  53.1568 209.7874 0001277  87.2588 272.8558 15.30207073 10215
STARLINK-35345          
1 65833U 25221L   25330.08935988  .00028088  00000+0  95696-3 0  9993
2 65833  53.1577 209.4175 0001200  73.3295 286.7837 15.30197836 10224
